     3.04           N: GNSS NAV DATA    M: MIXED            RINEX VERSION / TYPE
ssrcrin-15.6.1x                         20250101 003000 UTC PGM / RUN BY / DATE 
    18                                                      LEAP SECONDS        
                                                            END OF HEADER       
E02 2025 01 01 00 30 00 1.866118982434E-04 2.884803507186E-12 0.000000000000E+00
     5.400000000000E+01-2.003125000000E+01 3.277993684452E-09 2.065728641364E+00
    -8.810311555862E-07 5.081454291940E-04 7.227063179016E-06 5.440617315292E+03
     2.610000000000E+05-5.215406417847E-08 2.417015904746E+00 4.842877388000E-08
     9.646661973049E-01 1.878437500000E+02 6.806367169656E-01-5.448084077427E-09
    -6.021679398546E-10 2.580000000000E+02 2.347000000000E+03
     3.120000000000E+00 0.000000000000E+00-5.122274160385E-09 0.000000000000E+00
     2.617400000000E+05
S44 2025 01 01 00 42 40 8.423812687397E-07 0.000000000000E+00 2.617520000000E+05
     7.320695520000E+03 1.995625000000E-03 6.250000000000E-08 6.300000000000E+01
     4.151411648000E+04 9.606250000000E-04-1.625000000000E-07 3.276700000000E+04
     8.052364000000E+02-1.275680000000E-01-2.125000000000E-06 6.000000000000E+01
S21 2025 01 01 00 42 56 0.000000000000E+00 0.000000000000E+00 2.617780000000E+05
     4.200468400000E+04 0.000000000000E+00 0.000000000000E+00 6.300000000000E+01
    -3.674932960000E+03 0.000000000000E+00 0.000000000000E+00 3.276700000000E+04
     0.000000000000E+00 0.000000000000E+00 0.000000000000E+00 1.200000000000E+02
S27 2025 01 01 00 43 44 0.000000000000E+00 0.000000000000E+00 2.617990000000E+05
     2.420134640000E+04-1.668750000000E-04-2.625000000000E-07 6.300000000000E+01
     3.453756320000E+04-2.583125000000E-03 1.750000000000E-07 3.276700000000E+04
     5.520528000000E+02 7.140000000000E-03-2.937500000000E-06 8.000000000000E+00
S28 2025 01 01 00 43 44 5.061738193035E-07 5.911715561524E-11 2.617990000000E+05
     5.143722560000E+03-8.762500000000E-04-1.625000000000E-07 6.300000000000E+01
     4.184574808000E+04-1.257500000000E-03 5.000000000000E-08 3.276700000000E+04
    -2.361200000000E+01-6.400000000000E-04 1.250000000000E-07 8.000000000000E+00
S36 2025 01 01 00 43 28 0.000000000000E+00 0.000000000000E+00 2.618100000000E+05
     4.200368800000E+04 0.000000000000E+00 0.000000000000E+00 6.300000000000E+01
     3.674846960000E+03 0.000000000000E+00 0.000000000000E+00 3.276700000000E+04
     0.000000000000E+00 0.000000000000E+00 0.000000000000E+00 1.700000000000E+02
S23 2025 01 01 00 43 28 0.000000000000E+00 0.000000000000E+00 2.618120000000E+05
     3.866796400000E+04 0.000000000000E+00 0.000000000000E+00 6.300000000000E+01
     1.681330800000E+04 0.000000000000E+00 0.000000000000E+00 3.276700000000E+04
     0.000000000000E+00 0.000000000000E+00 0.000000000000E+00 7.000000000000E+00
S44 2025 01 01 00 44 48 8.423812687397E-07 0.000000000000E+00 2.618720000000E+05
     7.320952160000E+03 2.012500000000E-03 6.250000000000E-08 6.300000000000E+01
     4.151423680000E+04 9.181250000000E-04-1.625000000000E-07 3.276700000000E+04
     7.888728000000E+02-1.281080000000E-01-2.062500000000E-06 6.000000000000E+01
